[{"OBJECT_NAME":"JILIN-1 GAOFEN 03D48","OBJECT_ID":"2022-167P","EPOCH":"2026-03-09T23:48:37.804608","MEAN_MOTION":15.32947339,"ECCENTRICITY":0.00075954,"INCLINATION":97.6781,"RA_OF_ASC_NODE":234.4968,"ARG_OF_PERICENTER":111.3084,"MEAN_ANOMALY":248.8969,"EPHEMERIS_TYPE":0,"CLASSIFICATION_TYPE":"U","NORAD_CAT_ID":54695,"ELEMENT_SET_NO":999,"REV_AT_EPOCH":18018,"BSTAR":0.00049677114,"MEAN_MOTION_DOT":0.00015755,"MEAN_MOTION_DDOT":0},{"OBJECT_NAME":"STARLINK-35415","OBJECT_ID":"2025-224D","EPOCH":"2026-03-09T05:03:19.836000","MEAN_MOTION":15.30188375,"ECCENTRICITY":0.00011037,"INCLINATION":53.1599,"RA_OF_ASC_NODE":13.388,"ARG_OF_PERICENTER":84.563,"MEAN_ANOMALY":275.5496,"EPHEMERIS_TYPE":0,"CLASSIFICATION_TYPE":"U","NORAD_CAT_ID":65885,"ELEMENT_SET_NO":999,"REV_AT_EPOCH":2470,"BSTAR":0.00091922269,"MEAN_MOTION_DOT":0.00026955,"MEAN_MOTION_DDOT":0}]
